OBJECT_NAME,OBJECT_ID,EPOCH,MEAN_MOTION,ECCENTRICITY,INCLINATION,RA_OF_ASC_NODE,ARG_OF_PERICENTER,MEAN_ANOMALY,EPHEMERIS_TYPE,CLASSIFICATION_TYPE,NORAD_CAT_ID,ELEMENT_SET_NO,REV_AT_EPOCH,BSTAR,MEAN_MOTION_DOT,MEAN_MOTION_DDOT
PROBA-1,2001-049B,2026-06-25T19:57:59.767200,15.07531158,.0056402,97.9605,185.6657,93.6130,267.1549,0,U,26958,999,34492,.23747E-3,.3669E-4,0
CUTE-1 (CO-55),2003-031E,2026-06-25T12:53:31.892352,14.24340467,.0010043,98.6736,184.9911,154.4508,205.7169,0,U,27844,999,19286,.14177E-3,.284E-5,0
CUBESAT XI-IV (CO-57),2003-031J,2026-06-25T12:42:56.718432,14.23624963,.0009568,98.6767,184.6898,172.4685,187.6639,0,U,27848,999,19256,.12557E-3,.243E-5,0
APRIZESAT 4,2009-041D,2026-06-25T03:30:59.728896,14.83888656,.00420114,98.1409,251.6256,296.5870,63.1042,0,U,35684,999,91254,.77387811E-4,.593E-5,0
APRIZESAT 3,2009-041F,2026-06-25T09:23:35.223360,14.96266472,.0062609,98.2074,330.0086,41.0217,319.5687,0,U,35686,999,91760,.10807E-3,.12E-4,0
PROBA-2,2009-059B,2026-06-25T11:50:41.444736,14.54865679,.0011974,98.2452,359.7311,253.6382,106.3499,0,U,36037,999,88273,.56265E-4,.196E-5,0
APRIZESAT 5,2011-044E,2026-06-25T17:20:05.734176,14.81092885,.0051639,98.2452,110.0046,336.7782,23.1096,0,U,37792,999,80005,.1358E-3,.1018E-4,0
APRIZESAT 6,2011-044F,2026-06-25T16:24:25.511040,14.76927988,.0044331,98.2358,87.3565,59.6909,3.8194,0,U,37793,999,79840,.11329E-3,.754E-5,0
PROBA-V,2013-021A,2026-06-25T20:01:37.368192,14.23598837,.0005383,98.3588,155.0144,103.6108,256.5672,0,U,39159,999,68234,.52407E-4,.78E-6,0
APRIZESAT 7,2013-066A,2026-06-25T21:00:01.683072,14.91580198,.0035753,97.7710,129.9700,179.9977,180.1248,0,U,39416,999,68252,.11626E-3,.1122E-4,0
APRIZESAT 8,2013-066K,2026-06-25T19:38:05.397792,14.87666692,.0044374,97.8222,124.1658,257.1749,102.4507,0,U,39425,999,68095,.95359E-4,.826E-5,0
BUGSAT-1 (TITA),2014-033E,2026-06-25T19:36:29.807424,15.15675037,.0028608,98.0423,269.8714,149.2480,211.0435,0,U,40014,999,65714,.40937E-3,.7798E-4,0
SAUDISAT 4,2014-033G,2026-06-25T20:13:58.159200,14.79554772,.0045795,97.7592,322.6786,46.6054,313.8957,0,U,40016,999,64735,.81336E-4,.567E-5,0
APRIZESAT 9,2014-033J,2026-06-25T19:51:46.421568,14.74226017,.0066378,97.9069,309.8154,171.3507,188.8862,0,U,40018,999,64483,.11065E-3,.704E-5,0
APRIZESAT 10,2014-033K,2026-06-25T20:01:10.953120,14.70890100,.007752,97.9658,303.6012,245.7396,113.5699,0,U,40019,999,64352,.81213E-4,.467E-5,0
TECHDEMOSAT-1 (TDS-1),2014-037H,2026-06-25T13:20:13.934112,15.13406956,.0004926,98.3814,169.5984,227.5309,132.5504,0,U,40076,999,64949,.5012E-3,.8879E-4,0
TECHNOSAT,2017-042E,2026-06-25T16:38:13.291296,15.05009734,.0019327,97.4294,334.0282,67.8246,292.5029,0,U,42829,999,48798,.23119E-3,.3235E-4,0
FLYING LAPTOP,2017-042G,2026-06-25T20:25:15.868704,15.01202832,.0019965,97.4722,332.0529,94.0283,266.3224,0,U,42831,999,48775,.53664E-3,.686E-4,0
HAWK-A,2018-099H,2026-06-25T16:23:35.500128,15.24734855,.0033151,97.3913,228.8081,254.4024,105.3554,0,U,43765,999,41439,.31345E-3,.7808E-4,0
HAWK-B,2018-099AN,2026-06-25T17:09:12.061152,15.22909740,.0030225,97.3963,228.2365,273.3049,86.4730,0,U,43794,999,41433,.28289E-3,.6646E-4,0
HAWK-C,2018-099AT,2026-06-25T16:56:21.822432,15.28213042,.0038758,97.3890,229.7849,254.2399,105.4565,0,U,43799,999,41521,.33448E-3,.9327E-4,0
SALSAT,2020-068K,2026-06-25T17:08:00.529728,15.29911798,.00078,97.8851,180.2981,271.7296,88.3050,0,U,46495,999,31666,.30719E-3,.8822E-4,0
HAWK-2C,2021-006CT,2026-06-25T16:38:52.363968,15.34759904,.0007605,97.2280,220.8338,157.6099,202.5478,0,U,47502,999,30080,.23315E-3,.7785E-4,0
HAWK-2A,2021-006CW,2026-06-25T16:42:20.600064,15.34774307,.0007066,97.2322,221.5191,160.2913,199.8605,0,U,47505,999,30080,.23058E-3,.7701E-4,0
HAWK-2B,2021-006CZ,2026-06-25T16:35:10.154400,15.34874922,.0007648,97.2190,219.8320,159.0299,201.1260,0,U,47508,999,30080,.2635E-3,.8842E-4,0
HAWK-3B,2021-059BE,2026-06-25T13:07:28.907904,15.70242469,.0003139,97.6658,14.0496,286.2651,73.8265,0,U,48931,999,27916,.44001E-3,.5346E-3,0
HAWK-3C,2021-059BX,2026-06-25T19:14:04.775424,15.70271536,.0003394,97.6777,20.0292,287.2329,72.8561,0,U,48948,999,27920,.44883E-3,.5461E-3,0
HAWK-3A,2021-059CG,2026-06-25T13:06:48.319776,15.70236168,.0003378,97.6722,16.9475,289.9026,70.1871,0,U,48957,999,27916,.45213E-3,.54935E-3,0
HAWK-5C,2022-057Y,2026-06-25T16:28:28.238016,15.51673556,.0004405,97.6604,336.9034,56.1556,304.0114,0,U,52754,999,22766,.38231E-3,.22671E-3,0
HAWK-5B,2022-057AA,2026-06-25T16:28:14.253312,15.51676680,.0005053,97.6612,335.2532,48.3219,311.8464,0,U,52756,999,22766,.38456E-3,.22811E-3,0
HAWK-5A,2022-057AB,2026-06-25T16:27:56.948256,15.51675115,.0004948,97.6609,336.0843,51.1839,308.9854,0,U,52757,999,22766,.3811E-3,.22602E-3,0
